QIANFAN-41              
1 62242U 24232F   25272.84568730  .00000165  00000+0  23604-3 0  9997
2 62242  88.9995  48.6408 0015114  50.6757 309.5732 13.50972975 89271
QIANFAN-42              
1 62243U 24232G   25272.87143795  .00000809  00000+0  34379-3 0  9997
2 62243  88.9995  45.7796 0013685 333.2860  26.7626 14.24365947 90859
QIANFAN-43              
1 62244U 24232H   25272.84161873  .00000159  00000+0  22733-3 0  9991
2 62244  88.9999  48.7032 0016743  55.0445 305.2276 13.50974196 57888
QIANFAN-44              
1 62245U 24232J   25272.82922218  .00000157  00000+0  22371-3 0  9994
2 62245  88.9999  48.5163 0014907  52.9275 307.3237 13.50975548 89358
QIANFAN-45              
1 62246U 24232K   25272.87039588  .00000143  00000+0  20309-3 0  9993
2 62246  89.0002  48.6562 0015538  52.2969 307.9588 13.50972173 89282
QIANFAN-46              
1 62247U 24232L   25272.82099844  .00000176  00000+0  25358-3 0  9995
2 62247  88.9998  48.7331 0015740  57.4348 302.8321 13.50972914 89230
QIANFAN-47              
1 62248U 24232M   25272.82514983  .00000168  00000+0  24183-3 0  9998
2 62248  88.9992  48.6686 0016145  56.4825 303.7866 13.50974594 89269
QIANFAN-48              
1 62249U 24232N   25272.86220091  .00000189  00000+0  27438-3 0  9996
2 62249  88.9998  48.6639 0018441  58.2284 302.0661 13.50970349 89274
